start=new Date('2022-10-04T00:00:00.000Z').valueOf();
sats=[{"INCLINATION":"53.0561","CENTER_NAME":"EARTH","MEAN_MOTION_DDOT":"0.0000000000000","MEAN_ANOMALY":"295.2604","ECCENTRICITY":"0.00017740","LAUNCH_DATE":"2020-10-06","MEAN_MOTION_DOT":"0.00018192","COUNTRY_CODE":"US","CLASSIFICATION_TYPE":"U","ARG_OF_PERICENTER":"64.8569","BSTAR":"0.00123610000000","PERIOD":"95.590","SITE":"AFETR","TLE_LINE1":"1 46580U 20070BA  22276.75880279  .00018192  00000-0  12361-2 0  9993","MEAN_ELEMENT_THEORY":"SGP4","OBJECT_TYPE":"PAYLOAD","EPHEMERIS_TYPE":"0","DECAY_DATE":null,"OBJECT_ID":"2020-070BA","TLE_LINE2":"2 46580  53.0561  26.2464 0001774  64.8569 295.2604 15.06427342110875","NORAD_CAT_ID":"46580","EPOCH":"2022-10-03T18:12:40.561056","OBJECT_NAME":"STARLINK-1708","GP_ID":"214115706","RCS_SIZE":"LARGE","MEAN_MOTION":"15.06427342","TIME_SYSTEM":"UTC","PERIAPSIS":"545.901","SEMIMAJOR_AXIS":"6925.265","REF_FRAME":"TEME","FILE":"3590585","RA_OF_ASC_NODE":"26.2464","APOAPSIS":"548.358","REV_AT_EPOCH":"11087","ELEMENT_SET_NO":"999"},{"CENTER_NAME":"EARTH","INCLINATION":"53.0545","MEAN_MOTION_DDOT":"0.0000000000000","MEAN_ANOMALY":"300.2027","MEAN_MOTION_DOT":"0.00017313","LAUNCH_DATE":"2020-10-06","ECCENTRICITY":"0.00015490","COUNTRY_CODE":"US","ARG_OF_PERICENTER":"59.9115","BSTAR":"0.00117750000000","CLASSIFICATION_TYPE":"U","MEAN_ELEMENT_THEORY":"SGP4","OBJECT_TYPE":"PAYLOAD","EPHEMERIS_TYPE":"0","SITE":"AFETR","PERIOD":"95.591","TLE_LINE1":"1 46581U 20070BB  22276.79058538  .00017313  00000-0  11775-2 0  9995","TLE_LINE2":"2 46581  53.0545  21.1085 0001549  59.9115 300.2027 15.06425147110948","NORAD_CAT_ID":"46581","EPOCH":"2022-10-03T18:58:26.576832","DECAY_DATE":null,"OBJECT_ID":"2020-070BB","TIME_SYSTEM":"UTC","SEMIMAJOR_AXIS":"6925.271","PERIAPSIS":"546.064","RCS_SIZE":"LARGE","OBJECT_NAME":"STARLINK-1712","GP_ID":"214115956","MEAN_MOTION":"15.06425147","RA_OF_ASC_NODE":"21.1085","APOAPSIS":"548.209","FILE":"3590585","ELEMENT_SET_NO":"999","REV_AT_EPOCH":"11094","REF_FRAME":"TEME"},{"TLE_LINE2":"2 46582  53.0554  21.1793 0001376  74.5522 285.5619 15.06424556110943","EPOCH":"2022-10-03T18:37:12.684864","NORAD_CAT_ID":"46582","DECAY_DATE":null,"OBJECT_ID":"2020-070BC","OBJECT_TYPE":"PAYLOAD","MEAN_ELEMENT_THEORY":"SGP4","EPHEMERIS_TYPE":"0","SITE":"AFETR","PERIOD":"95.591","TLE_LINE1":"1 46582U 20070BC  22276.77584126  .00016540  00000-0  11259-2 0  9999","APOAPSIS":"548.091","RA_OF_ASC_NODE":"21.1793","FILE":"3590585","ELEMENT_SET_NO":"999","REV_AT_EPOCH":"11094","REF_FRAME":"TEME","TIME_SYSTEM":"UTC","SEMIMAJOR_AXIS":"6925.273","PERIAPSIS":"546.185","RCS_SIZE":"LARGE","GP_ID":"214116208","OBJECT_NAME":"STARLINK-1728","MEAN_MOTION":"15.06424556","MEAN_MOTION_DDOT":"0.0000000000000","MEAN_ANOMALY":"285.5619","CENTER_NAME":"EARTH","INCLINATION":"53.0554","ARG_OF_PERICENTER":"74.5522","BSTAR":"0.00112590000000","CLASSIFICATION_TYPE":"U","MEAN_MOTION_DOT":"0.00016540","LAUNCH_DATE":"2020-10-06","ECCENTRICITY":"0.00013760","COUNTRY_CODE":"US"},{"TLE_LINE1":"1 46583U 20070BD  22276.75925890  .00006072  00000-0  42595-3 0  9992","SITE":"AFETR","PERIOD":"95.591","EPHEMERIS_TYPE":"0","MEAN_ELEMENT_THEORY":"SGP4","OBJECT_TYPE":"PAYLOAD","OBJECT_ID":"2020-070BD","DECAY_DATE":null,"NORAD_CAT_ID":"46583","EPOCH":"2022-10-03T18:13:19.968960","TLE_LINE2":"2 46583  53.0555  41.2479 0001485  81.3831 278.7326 15.06417805110655","MEAN_MOTION":"15.06417805","RCS_SIZE":"LARGE","GP_ID":"214116451","OBJECT_NAME":"STARLINK-1729","SEMIMAJOR_AXIS":"6925.294","PERIAPSIS":"546.131","TIME_SYSTEM":"UTC","REF_FRAME":"TEME","ELEMENT_SET_NO":"999","REV_AT_EPOCH":"11065","APOAPSIS":"548.187","RA_OF_ASC_NODE":"41.2479","FILE":"3590585","INCLINATION":"53.0555","CENTER_NAME":"EARTH","MEAN_ANOMALY":"278.7326","MEAN_MOTION_DDOT":"0.0000000000000","COUNTRY_CODE":"US","LAUNCH_DATE":"2020-10-06","MEAN_MOTION_DOT":"0.00006072","ECCENTRICITY":"0.00014850","CLASSIFICATION_TYPE":"U","BSTAR":"0.00042595000000","ARG_OF_PERICENTER":"81.3831"},{"CLASSIFICATION_TYPE":"U","ARG_OF_PERICENTER":"64.6731","BSTAR":"0.00005445100000","MEAN_MOTION_DOT":"0.00000530","LAUNCH_DATE":"2020-10-06","ECCENTRICITY":"0.00015430","COUNTRY_CODE":"US","MEAN_MOTION_DDOT":"0.0000000000000","MEAN_ANOMALY":"295.4418","INCLINATION":"53.0560","CENTER_NAME":"EARTH","REF_FRAME":"TEME","FILE":"3590320","RA_OF_ASC_NODE":"22.3500","APOAPSIS":"548.259","REV_AT_EPOCH":"11090","ELEMENT_SET_NO":"999","OBJECT_NAME":"STARLINK-1732","GP_ID":"214084948","RCS_SIZE":"LARGE","MEAN_MOTION":"15.06407560","TIME_SYSTEM":"UTC","PERIAPSIS":"546.122","SEMIMAJOR_AXIS":"6925.325","DECAY_DATE":null,"OBJECT_ID":"2020-070BE","TLE_LINE2":"2 46584  53.0560  22.3500 0001543  64.6731 295.4418 15.06407560110908","NORAD_CAT_ID":"46584","EPOCH":"2022-10-03T12:20:21.586272","PERIOD":"95.592","SITE":"AFETR","TLE_LINE1":"1 46584U 20070BE  22276.51413873  .00000530  00000-0  54451-4 0  9998","MEAN_ELEMENT_THEORY":"SGP4","OBJECT_TYPE":"PAYLOAD","EPHEMERIS_TYPE":"0"},{"FILE":"3590585","RA_OF_ASC_NODE":"21.0707","APOAPSIS":"548.274","REV_AT_EPOCH":"11094","ELEMENT_SET_NO":"999","REF_FRAME":"TEME","TIME_SYSTEM":"UTC","PERIAPSIS":"546.137","SEMIMAJOR_AXIS":"6925.341","GP_ID":"214115457","OBJECT_NAME":"STARLINK-1736","RCS_SIZE":"LARGE","MEAN_MOTION":"15.06402603","TLE_LINE2":"2 46585  53.0570  21.0707 0001543  60.3000 299.8142 15.06402603110946","NORAD_CAT_ID":"46585","EPOCH":"2022-10-03T19:07:41.852352","DECAY_DATE":null,"OBJECT_ID":"2020-070BF","MEAN_ELEMENT_THEORY":"SGP4","OBJECT_TYPE":"PAYLOAD","EPHEMERIS_TYPE":"0","PERIOD":"95.592","SITE":"AFETR","TLE_LINE1":"1 46585U 20070BF  22276.79701218  .00000160  00000-0  29666-4 0  9991","ARG_OF_PERICENTER":"60.3000","BSTAR":"0.00002966600000","CLASSIFICATION_TYPE":"U","LAUNCH_DATE":"2020-10-06","ECCENTRICITY":"0.00015430","MEAN_MOTION_DOT":"0.00000160","COUNTRY_CODE":"US","MEAN_MOTION_DDOT":"0.0000000000000","MEAN_ANOMALY":"299.8142","CENTER_NAME":"EARTH","INCLINATION":"53.0570"},{"INCLINATION":"53.0545","CENTER_NAME":"EARTH","MEAN_MOTION_DDOT":"0.0000000000000","MEAN_ANOMALY":"299.8965","MEAN_MOTION_DOT":"0.00002523","LAUNCH_DATE":"2020-10-06","ECCENTRICITY":"0.00014740","COUNTRY_CODE":"US","CLASSIFICATION_TYPE":"U","ARG_OF_PERICENTER":"60.2171","BSTAR":"0.00018817000000","PERIOD":"95.591","SITE":"AFETR","TLE_LINE1":"1 46586U 20070BG  22276.78688920  .00002523  00000-0  18817-3 0  9995","OBJECT_TYPE":"PAYLOAD","MEAN_ELEMENT_THEORY":"SGP4","EPHEMERIS_TYPE":"0","DECAY_DATE":null,"OBJECT_ID":"2020-070BG","TLE_LINE2":"2 46586  53.0545  21.1150 0001474  60.2171 299.8965 15.06415066110628","NORAD_CAT_ID":"46586","EPOCH":"2022-10-03T18:53:07.226880","GP_ID":"214095801","OBJECT_NAME":"STARLINK-1737","RCS_SIZE":"LARGE","MEAN_MOTION":"15.06415066","TIME_SYSTEM":"UTC","PERIAPSIS":"546.147","SEMIMAJOR_AXIS":"6925.302","REF_FRAME":"TEME","FILE":"3590546","APOAPSIS":"548.188","RA_OF_ASC_NODE":"21.1150","REV_AT_EPOCH":"11062","ELEMENT_SET_NO":"999"},{"ARG_OF_PERICENTER":"55.6216","BSTAR":"0.00174050000000","CLASSIFICATION_TYPE":"U","LAUNCH_DATE":"2020-10-06","MEAN_MOTION_DOT":"0.00025755","ECCENTRICITY":"0.00019310","COUNTRY_CODE":"US","MEAN_MOTION_DDOT":"0.0000000000000","MEAN_ANOMALY":"304.4956","CENTER_NAME":"EARTH","INCLINATION":"53.0555","FILE":"3590320","RA_OF_ASC_NODE":"22.1026","APOAPSIS":"548.478","REV_AT_EPOCH":"11091","ELEMENT_SET_NO":"999","REF_FRAME":"TEME","TIME_SYSTEM":"UTC","PERIAPSIS":"545.803","SEMIMAJOR_AXIS":"6925.275","GP_ID":"214084198","OBJECT_NAME":"STARLINK-1746","RCS_SIZE":"LARGE","MEAN_MOTION":"15.06423914","TLE_LINE2":"2 46588  53.0555  22.1026 0001931  55.6216 304.4956 15.06423914110916","NORAD_CAT_ID":"46588","EPOCH":"2022-10-03T13:39:59.768928","DECAY_DATE":null,"OBJECT_ID":"2020-070BJ","MEAN_ELEMENT_THEORY":"SGP4","OBJECT_TYPE":"PAYLOAD","EPHEMERIS_TYPE":"0","PERIOD":"95.591","SITE":"AFETR","TLE_LINE1":"1 46588U 20070BJ  22276.56944177  .00025755  00000-0  17405-2 0  9995"},{"REF_FRAME":"TEME","FILE":"3590320","RA_OF_ASC_NODE":"22.1337","APOAPSIS":"548.325","REV_AT_EPOCH":"11090","ELEMENT_SET_NO":"999","OBJECT_NAME":"STARLINK-1749","GP_ID":"214084448","RCS_SIZE":"LARGE","MEAN_MOTION":"15.06415069","TIME_SYSTEM":"UTC","PERIAPSIS":"546.010","SEMIMAJOR_AXIS":"6925.302","DECAY_DATE":null,"OBJECT_ID":"2020-070BK","TLE_LINE2":"2 46589  53.0552  22.1337 0001671  72.5929 287.5242 15.06415069110909","NORAD_CAT_ID":"46589","EPOCH":"2022-10-03T13:29:21.828480","PERIOD":"95.591","SITE":"AFETR","TLE_LINE1":"1 46589U 20070BK  22276.56205820  .00004150  00000-0  29719-3 0  9999","OBJECT_TYPE":"PAYLOAD","MEAN_ELEMENT_THEORY":"SGP4","EPHEMERIS_TYPE":"0","CLASSIFICATION_TYPE":"U","ARG_OF_PERICENTER":"72.5929","BSTAR":"0.00029719000000","MEAN_MOTION_DOT":"0.00004150","LAUNCH_DATE":"2020-10-06","ECCENTRICITY":"0.00016710","COUNTRY_CODE":"US","MEAN_MOTION_DDOT":"0.0000000000000","MEAN_ANOMALY":"287.5242","INCLINATION":"53.0552","CENTER_NAME":"EARTH"},{"DECAY_DATE":null,"OBJECT_ID":"2020-070BM","TLE_LINE2":"2 46591  53.0551  22.4773 0001659  66.8425 293.2738 15.06423134109950","NORAD_CAT_ID":"46591","EPOCH":"2022-10-03T11:37:54.700032","PERIOD":"95.591","SITE":"AFETR","TLE_LINE1":"1 46591U 20070BM  22276.48466088  .00018341  00000-0  12462-2 0  9991","MEAN_ELEMENT_THEORY":"SGP4","OBJECT_TYPE":"PAYLOAD","EPHEMERIS_TYPE":"0","REF_FRAME":"TEME","FILE":"3590320","APOAPSIS":"548.292","RA_OF_ASC_NODE":"22.4773","REV_AT_EPOCH":"10995","ELEMENT_SET_NO":"999","GP_ID":"214085698","OBJECT_NAME":"STARLINK-1755","RCS_SIZE":"LARGE","MEAN_MOTION":"15.06423134","TIME_SYSTEM":"UTC","PERIAPSIS":"545.994","SEMIMAJOR_AXIS":"6925.278","MEAN_MOTION_DDOT":"0.0000000000000","MEAN_ANOMALY":"293.2738","INCLINATION":"53.0551","CENTER_NAME":"EARTH","CLASSIFICATION_TYPE":"U","ARG_OF_PERICENTER":"66.8425","BSTAR":"0.00124620000000","MEAN_MOTION_DOT":"0.00018341","LAUNCH_DATE":"2020-10-06","ECCENTRICITY":"0.00016590","COUNTRY_CODE":"US"}];
